[{"OBJECT_NAME":"STARLINK-36240","OBJECT_ID":"2025-298B","EPOCH":"2026-03-09T22:38:13.077024","MEAN_MOTION":14.9914115,"ECCENTRICITY":0.00027696,"INCLINATION":70.0016,"RA_OF_ASC_NODE":13.8861,"ARG_OF_PERICENTER":258.7048,"MEAN_ANOMALY":101.38,"EPHEMERIS_TYPE":0,"CLASSIFICATION_TYPE":"U","NORAD_CAT_ID":67076,"ELEMENT_SET_NO":999,"REV_AT_EPOCH":1325,"BSTAR":0.00087635231,"MEAN_MOTION_DOT":0.00010601,"MEAN_MOTION_DDOT":0},{"OBJECT_NAME":"COSMOS 2251 DEB","OBJECT_ID":"1993-036SU","EPOCH":"2026-03-09T16:21:38.417760","MEAN_MOTION":15.03076437,"ECCENTRICITY":0.00203067,"INCLINATION":74.0425,"RA_OF_ASC_NODE":271.4678,"ARG_OF_PERICENTER":270.4432,"MEAN_ANOMALY":89.443,"EPHEMERIS_TYPE":0,"CLASSIFICATION_TYPE":"U","NORAD_CAT_ID":34451,"ELEMENT_SET_NO":999,"REV_AT_EPOCH":89938,"BSTAR":0.0023702619,"MEAN_MOTION_DOT":0.00032214,"MEAN_MOTION_DDOT":0}]
